NORAD_CAT_ID,OBJECT_NAME,OBJECT_TYPE,EPOCH,MEAN_MOTION,ECCENTRICITY,INCLINATION,RA_OF_ASC_NODE,ARG_OF_PERICENTER,MEAN_ANOMALY,BSTAR,MEAN_MOTION_DOT,MEAN_MOTION_DDOT,TLE_LINE0,TLE_LINE1,TLE_LINE2,SEMIMAJOR_AXIS,PERIOD,APOGEE,PERIGEE,DECAYED
56469.0,STARLINK-5518,PAYLOAD,2023-05-29 14:00:01,15.69925504,0.0003505,69.9992,192.283,276.446,126.3441,0.00017292,0.00020632,0.0,0 STARLINK-5518,1 56469U 23064X   23149.58334491  .00020632  00000-0  17292-3 0  9998,2 56469  69.9992 192.2830 0003505 276.4460 126.3441 15.69925504  3339,6737.247,91.724,361.474,356.751,0.0
56469.0,STARLINK-5518,PAYLOAD,2023-05-29 19:56:08,15.69935511,0.0003465,69.9989,191.5882,273.9331,86.1468,0.00017361,0.00020724,0.0,0 STARLINK-5518,1 56469U 23064X   23149.83065180  .00020724  00000-0  17361-3 0  9991,2 56469  69.9989 191.5882 0003465 273.9331  86.1468 15.69935511  3025,6737.219,91.724,361.418,356.749,0.0
56469.0,STARLINK-5518,PAYLOAD,2023-05-30 02:03:08,15.69929826,0.0003599,69.9987,190.871,274.7018,85.3767,0.00010583,0.00012535,0.0,0 STARLINK-5518,1 56469U 23064X   23150.08551926  .00012535  00000-0  10583-3 0  9998,2 56469  69.9987 190.8710 0003599 274.7018  85.3767 15.69929826  3412,6737.235,91.724,361.524,356.675,0.0
56469.0,STARLINK-5518,PAYLOAD,2023-05-30 12:45:24,15.69926694,0.0003475,69.9987,189.6174,269.0488,91.031,3.2416e-05,3.687e-05,0.0,0 STARLINK-5518,1 56469U 23064X   23150.53153567  .00003687  00000-0  32416-4 0  9995,2 56469  69.9987 189.6174 0003475 269.0488  91.0310 15.69926694  3130,6737.244,91.724,361.45,356.768,0.0
56469.0,STARLINK-5518,PAYLOAD,2023-05-30 18:52:25,15.69931019,0.000347,69.9987,188.9007,269.3576,90.7222,4.6815e-05,5.422e-05,0.0,0 STARLINK-5518,1 56469U 23064X   23150.78640145  .00005422  00000-0  46815-4 0  9992,2 56469  69.9987 188.9007 0003470 269.3576  90.7222 15.69931019  3521,6737.231,91.724,361.434,356.759,0.0
56469.0,STARLINK-5518,PAYLOAD,2023-05-30 20:24:10,15.69930273,0.0003483,69.9987,188.7216,269.1633,90.9164,4.0773e-05,4.694e-05,0.0,0 STARLINK-5518,1 56469U 23064X   23150.85011798  .00004694  00000-0  40773-4 0  9993,2 56469  69.9987 188.7216 0003483 269.1633  90.9164 15.69930273  3187,6737.233,91.724,361.445,356.752,0.0
56469.0,STARLINK-5518,PAYLOAD,2023-05-31 11:41:41,15.69936571,0.0003477,69.9987,186.9302,268.2993,91.7805,9.7972e-05,0.0001159,0.0,0 STARLINK-5518,1 56469U 23064X   23151.48728460  .00011590  00000-0  97972-4 0  9990,2 56469  69.9987 186.9302 0003477 268.2993  91.7805 15.69936571  3284,6737.215,91.723,361.423,356.738,0.0
56469.0,STARLINK-5518,PAYLOAD,2023-05-31 14:45:11,15.6993426,0.0003463,69.9987,186.5718,269.139,90.9409,7.9606e-05,9.374e-05,0.0,0 STARLINK-5518,1 56469U 23064X   23151.61471809  .00009374  00000-0  79606-4 0  9998,2 56469  69.9987 186.5718 0003463 269.1390  90.9409 15.69934260  3652,6737.222,91.724,361.42,356.754,0.0
56469.0,STARLINK-5518,PAYLOAD,2023-05-31 20:52:12,15.69921946,0.0003448,69.9986,185.855,271.2503,88.8298,2.2899e-05,2.541e-05,0.0,0 STARLINK-5518,1 56469U 23064X   23151.86958742  .00002541  00000-0  22899-4 0  9992,2 56469  69.9986 185.8550 0003448 271.2503  88.8298 15.69921946  3345,6737.257,91.724,361.445,356.799,0.0
56469.0,STARLINK-5518,PAYLOAD,2023-06-01 02:59:12,15.69924825,0.0003438,69.9984,185.1387,269.1415,90.9386,2.2478e-05,2.491e-05,0.0,0 STARLINK-5518,1 56469U 23064X   23152.12445400  .00002491  00000-0  22478-4 0  9991,2 56469  69.9984 185.1387 0003438 269.1415  90.9386 15.69924825  3735,6737.249,91.724,361.43,356.798,0.0
56469.0,STARLINK-5518,PAYLOAD,2023-06-01 10:37:58,15.69926016,0.0003428,69.998,184.243,269.1465,90.9338,1.8526e-05,2.015e-05,0.0,0 STARLINK-5518,1 56469U 23064X   23152.44303744  .00002015  00000-0  18526-4 0  9991,2 56469  69.9980 184.2430 0003428 269.1465  90.9338 15.69926016  3432,6737.246,91.724,361.42,356.801,0.0
56469.0,STARLINK-5518,PAYLOAD,2023-06-01 19:48:28,15.69934614,0.0003444,69.998,183.1677,272.0582,88.0219,4.8856e-05,5.668e-05,0.0,0 STARLINK-5518,1 56469U 23064X   23152.82533511  .00005668  00000-0  48856-4 0  9996,2 56469  69.9980 183.1677 0003444 272.0582  88.0219 15.69934614  3499,6737.221,91.724,361.406,356.766,0.0
56469.0,STARLINK-5518,PAYLOAD,2023-06-02 09:34:15,15.69923141,0.0003338,69.9975,181.5556,269.9083,90.173,1.4139e-05,1.488e-05,0.0,0 STARLINK-5518,1 56469U 23064X   23153.39878908  .00001488  00000-0  14139-4 0  9994,2 56469  69.9975 181.5556 0003338 269.9083  90.1730 15.69923141  3938,6737.254,91.724,361.368,356.87,0.0
56469.0,STARLINK-5518,PAYLOAD,2023-06-02 11:06:00,15.69927153,0.0003382,69.9975,181.3763,269.5471,90.5337,1.8829e-05,2.052e-05,0.0,0 STARLINK-5518,1 56469U 23064X   23153.46250341  .00002052  00000-0  18829-4 0  9995,2 56469  69.9975 181.3763 0003382 269.5471  90.5337 15.69927153  3598,6737.242,91.724,361.386,356.829,0.0
56469.0,STARLINK-5518,PAYLOAD,2023-06-02 18:44:46,15.69924447,0.0003399,69.9974,180.4806,269.9022,90.1784,3.1064e-06,1.61e-06,0.0,0 STARLINK-5518,1 56469U 23064X   23153.78108837  .00000161  00000-0  31064-5 0  9998,2 56469  69.9974 180.4806 0003399 269.9022  90.1784 15.69924447  3640,6737.25,91.724,361.405,356.825,0.0
56469.0,STARLINK-5518,PAYLOAD,2023-06-03 10:02:17,15.69924943,0.0003419,69.9972,178.6893,272.0158,88.0646,1.2112e-05,1.244e-05,0.0,0 STARLINK-5518,1 56469U 23064X   23154.41825685  .00001244  00000-0  12112-4 0  9991,2 56469  69.9972 178.6893 0003419 272.0158  88.0646 15.69924943  4095,6737.249,91.724,361.417,356.81,0.0
56469.0,STARLINK-5518,PAYLOAD,2023-06-03 11:34:02,15.69926066,0.0003384,69.9975,178.5101,272.0194,88.0614,1.0301e-05,1.026e-05,0.0,0 STARLINK-5518,1 56469U 23064X   23154.48197280  .00001026  00000-0  10301-4 0  9997,2 56469  69.9975 178.5101 0003384 272.0194  88.0614 15.69926066  3755,6737.246,91.724,361.39,356.831,0.0
56469.0,STARLINK-5518,PAYLOAD,2023-06-03 19:12:47,15.69932503,0.0003439,69.9975,177.6154,275.5239,84.5564,2.857e-05,3.225e-05,0.0,0 STARLINK-5518,1 56469U 23064X   23154.80055276  .00003225  00000-0  28570-4 0  9991,2 56469  69.9975 177.6154 0003439 275.5239  84.5564 15.69932503  3806,6737.227,91.724,361.409,356.775,0.0
56469.0,STARLINK-5518,PAYLOAD,2023-06-04 02:51:35,15.69893229,0.0004032,69.9985,176.7224,272.8095,87.2639,-5.3276e-05,-6.607e-05,0.0,0 STARLINK-5518,1 56469U 23064X   23155.11915591 -.00006607  00000-0 -53276-4 0  9991,2 56469  69.9985 176.7224 0004032 272.8095  87.2639 15.69893229  4204,6737.339,91.726,361.921,356.488,0.0
56469.0,STARLINK-5518,PAYLOAD,2023-06-04 10:30:20,15.69902619,0.000323,69.9994,175.8235,263.8089,96.2738,-2.3445e-05,-3.028e-05,0.0,0 STARLINK-5518,1 56469U 23064X   23155.43773972 -.00003028  00000-0 -23445-4 0  9990,2 56469  69.9994 175.8235 0003230 263.8089  96.2738 15.69902619  4257,6737.313,91.725,361.354,357.001,0.0
56469.0,STARLINK-5518,PAYLOAD,2023-06-04 12:02:05,15.69903288,0.0003159,69.9996,175.6437,260.5426,99.5413,-2.2555e-05,-2.921e-05,0.0,0 STARLINK-5518,1 56469U 23064X   23155.50145652 -.00002921  00000-0 -22555-4 0  9998,2 56469  69.9996 175.6437 0003159 260.5426  99.5413 15.69903288  3911,6737.311,91.725,361.304,357.047,0.0
56469.0,STARLINK-5518,PAYLOAD,2023-06-04 15:05:35,15.69919009,0.000346,69.9988,175.2866,267.7563,92.3236,1.009e-05,1e-05,0.0,0 STARLINK-5518,1 56469U 23064X   23155.62888462  .00001000  00000-0  10090-4 0  9990,2 56469  69.9988 175.2866 0003460 267.7563  92.3236 15.69919009  4283,6737.266,91.724,361.462,356.8,0.0
56469.0,STARLINK-5518,PAYLOAD,2023-06-05 04:51:20,15.69944349,0.0003551,69.9983,173.6716,257.9728,102.107,7.4658e-05,8.781e-05,0.0,0 STARLINK-5518,1 56469U 23064X   23156.20232274  .00008781  00000-0  74658-4 0  9992,2 56469  69.9983 173.6716 0003551 257.9728 102.1070 15.69944349  4370,6737.193,91.723,361.451,356.666,0.0
56469.0,STARLINK-5518,PAYLOAD,2023-06-05 12:30:07,15.69927125,0.0002668,69.9975,172.7772,278.049,82.0403,3.8726e-05,4.447e-05,0.0,0 STARLINK-5518,1 56469U 23064X   23156.52091549  .00004447  00000-0  38726-4 0  9996,2 56469  69.9975 172.7772 0002668 278.0490  82.0403 15.69927125  4077,6737.242,91.724,360.905,357.31,0.0
56469.0,STARLINK-5518,PAYLOAD,2023-06-06 09:54:38,15.699446,0.0003665,69.999,170.2701,261.2861,98.792,0.00012936,0.00015384,0.0,0 STARLINK-5518,1 56469U 23064X   23157.41294050  .00015384  00000-0  12936-3 0  9993,2 56469  69.9990 170.2701 0003665 261.2861  98.7920 15.69944600  4214,6737.192,91.723,361.527,356.588,0.0
56469.0,STARLINK-5518,PAYLOAD,2023-06-06 12:58:08,15.69938351,0.0003649,69.9987,169.9118,265.8884,94.1894,0.00019689,0.00023543,0.0,0 STARLINK-5518,1 56469U 23064X   23157.54037596  .00023543  00000-0  19689-3 0  9995,2 56469  69.9987 169.9118 0003649 265.8884  94.1894 15.69938351  4580,6737.21,91.723,361.534,356.617,0.0
56469.0,STARLINK-5518,PAYLOAD,2023-06-07 04:15:39,15.69924299,0.0003281,69.9992,168.1184,256.8629,103.2201,3.3171e-05,3.778e-05,0.0,0 STARLINK-5518,1 56469U 23064X   23158.17754465  .00003778  00000-0  33171-4 0  9997,2 56469  69.9992 168.1184 0003281 256.8629 103.2201 15.69924299  4680,6737.251,91.724,361.326,356.905,0.0
56469.0,STARLINK-5518,PAYLOAD,2023-06-07 13:26:10,15.69927399,0.0003257,69.9994,167.0446,261.0253,99.0575,2.8038e-05,3.16e-05,0.0,0 STARLINK-5518,1 56469U 23064X   23158.55984523  .00003160  00000-0  28038-4 0  9990,2 56469  69.9994 167.0446 0003257 261.0253  99.0575 15.69927399  4393,6737.242,91.724,361.301,356.912,0.0
56469.0,STARLINK-5518,PAYLOAD,2023-06-07 18:01:25,15.69928473,0.0003268,69.9993,166.5073,261.7754,98.3071,3.0867e-05,3.501e-05,0.0,0 STARLINK-5518,1 56469U 23064X   23158.75099517  .00003501  00000-0  30867-4 0  9994,2 56469  69.9993 166.5073 0003268 261.7754  98.3071 15.69928473  4428,6737.239,91.724,361.305,356.902,0.0
56469.0,STARLINK-5518,PAYLOAD,2023-06-08 10:50:42,15.69924784,0.0003164,69.9995,164.5375,261.321,98.7627,1.9202e-05,2.097e-05,0.0,0 STARLINK-5518,1 56469U 23064X   23159.45188061  .00002097  00000-0  19202-4 0  9994,2 56469  69.9995 164.5375 0003164 261.3210  98.7627 15.69924784  4883,6737.249,91.724,361.246,356.983,0.0
